[{"OBJECT_NAME":"STARLINK-36938","OBJECT_ID":"2026-044Z","EPOCH":"2026-04-05T03:56:54.680064","MEAN_MOTION":15.75246825,"ECCENTRICITY":0.00015917,"INCLINATION":97.2875,"RA_OF_ASC_NODE":56.7012,"ARG_OF_PERICENTER":93.6133,"MEAN_ANOMALY":266.5314,"EPHEMERIS_TYPE":0,"CLASSIFICATION_TYPE":"U","NORAD_CAT_ID":68124,"ELEMENT_SET_NO":999,"REV_AT_EPOCH":565,"BSTAR":0.0019490123,"MEAN_MOTION_DOT":0.00301833,"MEAN_MOTION_DDOT":0},{"OBJECT_NAME":"STARLINK-36839","OBJECT_ID":"2026-044AA","EPOCH":"2026-04-05T06:00:02.000160","MEAN_MOTION":15.49123831,"ECCENTRICITY":0.00018158,"INCLINATION":97.2858,"RA_OF_ASC_NODE":56.5989,"ARG_OF_PERICENTER":95.468,"MEAN_ANOMALY":299.0449,"EPHEMERIS_TYPE":0,"CLASSIFICATION_TYPE":"U","NORAD_CAT_ID":68125,"ELEMENT_SET_NO":999,"REV_AT_EPOCH":562,"BSTAR":0.0029490569,"MEAN_MOTION_DOT":0.00163299,"MEAN_MOTION_DDOT":0},{"OBJECT_NAME":"ECHOSTAR 25","OBJECT_ID":"2026-045A","EPOCH":"2026-04-05T05:49:38.503200","MEAN_MOTION":1.00271198,"ECCENTRICITY":0.00017855,"INCLINATION":0.0337,"RA_OF_ASC_NODE":281.7974,"ARG_OF_PERICENTER":154.0499,"MEAN_ANOMALY":76.2518,"EPHEMERIS_TYPE":0,"CLASSIFICATION_TYPE":"U","NORAD_CAT_ID":68126,"ELEMENT_SET_NO":999,"REV_AT_EPOCH":26,"BSTAR":0,"MEAN_MOTION_DOT":5.9e-7,"MEAN_MOTION_DDOT":0},{"OBJECT_NAME":"ICOR SV","OBJECT_ID":"2026-046A","EPOCH":"2026-04-05T06:32:05.791200","MEAN_MOTION":16.02062968,"ECCENTRICITY":0.00845967,"INCLINATION":123.0716,"RA_OF_ASC_NODE":327.7655,"ARG_OF_PERICENTER":238.8476,"MEAN_ANOMALY":120.4285,"EPHEMERIS_TYPE":0,"CLASSIFICATION_TYPE":"U","NORAD_CAT_ID":68127,"ELEMENT_SET_NO":999,"REV_AT_EPOCH":383,"BSTAR":0.0006381383,"MEAN_MOTION_DOT":0.00587974,"MEAN_MOTION_DDOT":1.2327818e-5},{"OBJECT_NAME":"FIREFLY ALPHA R/B","OBJECT_ID":"2026-046B","EPOCH":"2026-04-05T06:48:07.751520","MEAN_MOTION":15.57987179,"ECCENTRICITY":0.00175074,"INCLINATION":123.0916,"RA_OF_ASC_NODE":322.3418,"ARG_OF_PERICENTER":31.718,"MEAN_ANOMALY":328.4932,"EPHEMERIS_TYPE":0,"CLASSIFICATION_TYPE":"U","NORAD_CAT_ID":68128,"ELEMENT_SET_NO":999,"REV_AT_EPOCH":378,"BSTAR":0.00057716651,"MEAN_MOTION_DOT":0.00044011,"MEAN_MOTION_DDOT":0},{"OBJECT_NAME":"GUOWANG GROUP 20 OBJECT A","OBJECT_ID":"2026-047A","EPOCH":"2026-04-04T02:24:09.516096","MEAN_MOTION":13.82826474,"ECCENTRICITY":6.607e-5,"INCLINATION":50.002,"RA_OF_ASC_NODE":327.8486,"ARG_OF_PERICENTER":106.3931,"MEAN_ANOMALY":253.7037,"EPHEMERIS_TYPE":0,"CLASSIFICATION_TYPE":"U","NORAD_CAT_ID":68129,"ELEMENT_SET_NO":999,"REV_AT_EPOCH":312,"BSTAR":5.0704986e-5,"MEAN_MOTION_DOT":-8.8e-7,"MEAN_MOTION_DDOT":0},{"OBJECT_NAME":"GUOWANG GROUP 20 OBJECT B","OBJECT_ID":"2026-047B","EPOCH":"2026-04-01T05:04:40.456704","MEAN_MOTION":13.87767313,"ECCENTRICITY":1.339e-5,"INCLINATION":50.0054,"RA_OF_ASC_NODE":339.2252,"ARG_OF_PERICENTER":185.6237,"MEAN_ANOMALY":174.4659,"EPHEMERIS_TYPE":0,"CLASSIFICATION_TYPE":"U","NORAD_CAT_ID":68130,"ELEMENT_SET_NO":999,"REV_AT_EPOCH":271,"BSTAR":6.9791497e-5,"MEAN_MOTION_DOT":-6.2e-7,"MEAN_MOTION_DDOT":0},{"OBJECT_NAME":"GUOWANG GROUP 20 OBJECT C","OBJECT_ID":"2026-047C","EPOCH":"2026-04-02T12:08:18.567744","MEAN_MOTION":13.863205,"ECCENTRICITY":6.698e-5,"INCLINATION":50.0019,"RA_OF_ASC_NODE":334.0677,"ARG_OF_PERICENTER":236.5521,"MEAN_ANOMALY":123.5312,"EPHEMERIS_TYPE":0,"CLASSIFICATION_TYPE":"U","NORAD_CAT_ID":68131,"ELEMENT_SET_NO":999,"REV_AT_EPOCH":290,"BSTAR":4.2135642e-5,"MEAN_MOTION_DOT":-9.6e-7,"MEAN_MOTION_DDOT":0},{"OBJECT_NAME":"GUOWANG GROUP 20 OBJECT D","OBJECT_ID":"2026-047D","EPOCH":"2026-04-02T13:48:14.018400","MEAN_MOTION":13.8659404,"ECCENTRICITY":7.103e-5,"INCLINATION":50.0067,"RA_OF_ASC_NODE":333.7806,"ARG_OF_PERICENTER":245.036,"MEAN_ANOMALY":115.0463,"EPHEMERIS_TYPE":0,"CLASSIFICATION_TYPE":"U","NORAD_CAT_ID":68132,"ELEMENT_SET_NO":999,"REV_AT_EPOCH":290,"BSTAR":5.1916391e-5,"MEAN_MOTION_DOT":-8.4e-7,"MEAN_MOTION_DDOT":0},{"OBJECT_NAME":"GUOWANG GROUP 20 OBJECT E","OBJECT_ID":"2026-047E","EPOCH":"2026-04-03T00:06:50.722272","MEAN_MOTION":13.85521979,"ECCENTRICITY":8.265e-5,"INCLINATION":50.0078,"RA_OF_ASC_NODE":332.0369,"ARG_OF_PERICENTER":23.123,"MEAN_ANOMALY":336.9704,"EPHEMERIS_TYPE":0,"CLASSIFICATION_TYPE":"U","NORAD_CAT_ID":68133,"ELEMENT_SET_NO":999,"REV_AT_EPOCH":297,"BSTAR":4.8670636e-5,"MEAN_MOTION_DOT":-8.9e-7,"MEAN_MOTION_DDOT":0},{"OBJECT_NAME":"GUOWANG GROUP 20 OBJECT F","OBJECT_ID":"2026-047F","EPOCH":"2026-04-02T13:36:24.060096","MEAN_MOTION":13.8719072,"ECCENTRICITY":6.29e-5,"INCLINATION":50.0093,"RA_OF_ASC_NODE":333.7419,"ARG_OF_PERICENTER":256.4099,"MEAN_ANOMALY":103.6728,"EPHEMERIS_TYPE":0,"CLASSIFICATION_TYPE":"U","NORAD_CAT_ID":68134,"ELEMENT_SET_NO":999,"REV_AT_EPOCH":290,"BSTAR":9.5092278e-5,"MEAN_MOTION_DOT":-3.3e-7,"MEAN_MOTION_DDOT":0},{"OBJECT_NAME":"GUOWANG GROUP 20 OBJECT G","OBJECT_ID":"2026-047G","EPOCH":"2026-04-04T10:41:27.076128","MEAN_MOTION":13.83778399,"ECCENTRICITY":7.67e-5,"INCLINATION":50.0135,"RA_OF_ASC_NODE":326.3688,"ARG_OF_PERICENTER":146.6368,"MEAN_ANOMALY":213.4577,"EPHEMERIS_TYPE":0,"CLASSIFICATION_TYPE":"U","NORAD_CAT_ID":68135,"ELEMENT_SET_NO":999,"REV_AT_EPOCH":317,"BSTAR":0.00014576,"MEAN_MOTION_DOT":1.8e-7,"MEAN_MOTION_DDOT":0},{"OBJECT_NAME":"GUOWANG GROUP 20 OBJECT H","OBJECT_ID":"2026-047H","EPOCH":"2026-04-02T11:48:51.915456","MEAN_MOTION":13.87381469,"ECCENTRICITY":9.093e-5,"INCLINATION":50.0086,"RA_OF_ASC_NODE":334.0113,"ARG_OF_PERICENTER":305.9014,"MEAN_ANOMALY":54.1799,"EPHEMERIS_TYPE":0,"CLASSIFICATION_TYPE":"U","NORAD_CAT_ID":68136,"ELEMENT_SET_NO":999,"REV_AT_EPOCH":289,"BSTAR":4.8250788e-5,"MEAN_MOTION_DOT":-8.8e-7,"MEAN_MOTION_DDOT":0},{"OBJECT_NAME":"GUOWANG GROUP 20 OBJECT J","OBJECT_ID":"2026-047J","EPOCH":"2026-04-02T16:56:00.731328","MEAN_MOTION":13.87066479,"ECCENTRICITY":6.698e-5,"INCLINATION":50.0058,"RA_OF_ASC_NODE":333.1317,"ARG_OF_PERICENTER":182.6269,"MEAN_ANOMALY":177.4625,"EPHEMERIS_TYPE":0,"CLASSIFICATION_TYPE":"U","NORAD_CAT_ID":68137,"ELEMENT_SET_NO":999,"REV_AT_EPOCH":293,"BSTAR":2.4623265e-5,"MEAN_MOTION_DOT":-1.16e-6,"MEAN_MOTION_DDOT":0},{"OBJECT_NAME":"CZ-8A R/B","OBJECT_ID":"2026-047K","EPOCH":"2026-04-05T05:20:07.564992","MEAN_MOTION":14.12233727,"ECCENTRICITY":0.00447668,"INCLINATION":49.9532,"RA_OF_ASC_NODE":320.9623,"ARG_OF_PERICENTER":229.3603,"MEAN_ANOMALY":130.3408,"EPHEMERIS_TYPE":0,"CLASSIFICATION_TYPE":"U","NORAD_CAT_ID":68138,"ELEMENT_SET_NO":999,"REV_AT_EPOCH":330,"BSTAR":0.00014078364,"MEAN_MOTION_DOT":1.09e-6,"MEAN_MOTION_DDOT":0},{"OBJECT_NAME":"SHIYAN-30 03","OBJECT_ID":"2026-048A","EPOCH":"2026-04-05T03:24:54.841824","MEAN_MOTION":14.91781472,"ECCENTRICITY":0.0002452,"INCLINATION":35.0013,"RA_OF_ASC_NODE":345.5428,"ARG_OF_PERICENTER":74.1012,"MEAN_ANOMALY":285.9963,"EPHEMERIS_TYPE":0,"CLASSIFICATION_TYPE":"U","NORAD_CAT_ID":68139,"ELEMENT_SET_NO":999,"REV_AT_EPOCH":345,"BSTAR":0.00036610133,"MEAN_MOTION_DOT":3.735e-5,"MEAN_MOTION_DDOT":0},{"OBJECT_NAME":"SHIYAN-30 04","OBJECT_ID":"2026-048B","EPOCH":"2026-04-05T03:25:54.924384","MEAN_MOTION":14.91778905,"ECCENTRICITY":9.612e-5,"INCLINATION":34.9928,"RA_OF_ASC_NODE":345.5399,"ARG_OF_PERICENTER":86.6451,"MEAN_ANOMALY":273.4364,"EPHEMERIS_TYPE":0,"CLASSIFICATION_TYPE":"U","NORAD_CAT_ID":68140,"ELEMENT_SET_NO":999,"REV_AT_EPOCH":345,"BSTAR":0.00035093441,"MEAN_MOTION_DOT":3.579e-5,"MEAN_MOTION_DDOT":0},{"OBJECT_NAME":"CZ-2D R/B","OBJECT_ID":"2026-048C","EPOCH":"2026-04-05T03:39:50.529888","MEAN_MOTION":14.9559773,"ECCENTRICITY":0.00159403,"INCLINATION":35.1309,"RA_OF_ASC_NODE":345.0738,"ARG_OF_PERICENTER":198.4763,"MEAN_ANOMALY":161.5368,"EPHEMERIS_TYPE":0,"CLASSIFICATION_TYPE":"U","NORAD_CAT_ID":68141,"ELEMENT_SET_NO":999,"REV_AT_EPOCH":346,"BSTAR":0.00020370762,"MEAN_MOTION_DOT":2.28e-5,"MEAN_MOTION_DDOT":0},{"OBJECT_NAME":"STARLINK-36604","OBJECT_ID":"2026-049A","EPOCH":"2026-04-05T04:58:45.738912","MEAN_MOTION":15.75242034,"ECCENTRICITY":0.0001406,"INCLINATION":97.2841,"RA_OF_ASC_NODE":115.7768,"ARG_OF_PERICENTER":67.024,"MEAN_ANOMALY":293.1174,"EPHEMERIS_TYPE":0,"CLASSIFICATION_TYPE":"U","NORAD_CAT_ID":68142,"ELEMENT_SET_NO":999,"REV_AT_EPOCH":359,"BSTAR":0.0016801259,"MEAN_MOTION_DOT":0.00258798,"MEAN_MOTION_DDOT":0},{"OBJECT_NAME":"STARLINK-36995","OBJECT_ID":"2026-049B","EPOCH":"2026-04-05T04:52:09.099840","MEAN_MOTION":15.75284651,"ECCENTRICITY":0.00016117,"INCLINATION":97.2844,"RA_OF_ASC_NODE":115.7826,"ARG_OF_PERICENTER":121.3652,"MEAN_ANOMALY":238.7771,"EPHEMERIS_TYPE":0,"CLASSIFICATION_TYPE":"U","NORAD_CAT_ID":68143,"ELEMENT_SET_NO":999,"REV_AT_EPOCH":359,"BSTAR":0.0022272906,"MEAN_MOTION_DOT":0.00347382,"MEAN_MOTION_DDOT":0},{"OBJECT_NAME":"STARLINK-37020","OBJECT_ID":"2026-049C","EPOCH":"2026-04-05T06:00:02.000160","MEAN_MOTION":15.75209844,"ECCENTRICITY":0.00012932,"INCLINATION":97.2845,"RA_OF_ASC_NODE":115.8565,"ARG_OF_PERICENTER":89.6447,"MEAN_ANOMALY":231.6197,"EPHEMERIS_TYPE":0,"CLASSIFICATION_TYPE":"U","NORAD_CAT_ID":68144,"ELEMENT_SET_NO":999,"REV_AT_EPOCH":489,"BSTAR":8.6935817e-5,"MEAN_MOTION_DOT":0.00012868,"MEAN_MOTION_DDOT":0},{"OBJECT_NAME":"STARLINK-36244","OBJECT_ID":"2026-049D","EPOCH":"2026-04-05T03:40:29.612064","MEAN_MOTION":15.75225845,"ECCENTRICITY":0.00016317,"INCLINATION":97.2843,"RA_OF_ASC_NODE":115.6963,"ARG_OF_PERICENTER":114.3058,"MEAN_ANOMALY":245.8378,"EPHEMERIS_TYPE":0,"CLASSIFICATION_TYPE":"U","NORAD_CAT_ID":68145,"ELEMENT_SET_NO":999,"REV_AT_EPOCH":358,"BSTAR":0.0014286807,"MEAN_MOTION_DOT":0.00218858,"MEAN_MOTION_DDOT":0},{"OBJECT_NAME":"STARLINK-36980","OBJECT_ID":"2026-049E","EPOCH":"2026-04-05T07:30:23.154336","MEAN_MOTION":15.80913767,"ECCENTRICITY":0.0001635,"INCLINATION":97.2847,"RA_OF_ASC_NODE":115.9401,"ARG_OF_PERICENTER":97.7773,"MEAN_ANOMALY":262.3681,"EPHEMERIS_TYPE":0,"CLASSIFICATION_TYPE":"U","NORAD_CAT_ID":68146,"ELEMENT_SET_NO":999,"REV_AT_EPOCH":361,"BSTAR":0.0013595437,"MEAN_MOTION_DOT":0.00269689,"MEAN_MOTION_DDOT":0}]
